STARLINK-31387          
1 59407U 24064K   26067.06028085  .00004130  00000+0  15950-3 0  9991
2 59407  43.0022  65.6247 0001181 254.2777 105.7945 15.27584169108977
TRANSPORTER-12 OBJECT AZ
1 62656U 25009AZ  26068.71026235  .00016057  00000+0  54903-3 0  9991
2 62656  97.3981 151.9913 0000987  45.3581 314.7740 15.30349724 63792
